0 THORAD AGENA D DEB
1 04864U 70025EU  13280.80740786  .00000151  00000-0  31067-3 0  7209
2 04864 099.5134 215.3581 0046316 178.1843 236.5399 13.48054541136543
0 THORAD AGENA D DEB
1 04864U 70025EU  13282.81143850  .00000130  00000-0  27621-3 0  7210
2 04864 099.5137 217.2656 0046396 173.1866 242.1054 13.48055661136813
0 THORAD AGENA D DEB
1 04864U 70025EU  13285.34800037  .00000118  00000-0  25662-3 0  7228
2 04864 099.5143 219.6799 0046491 166.8933 312.0244 13.48056683137155
0 THORAD AGENA D DEB
1 04864U 70025EU  13287.42531628  .00000141  00000-0  29441-3 0  7232
2 04864 099.5148 221.6570 0046552 161.7111 313.2619 13.48057303137430
0 THORAD AGENA D DEB
1 04864U 70025EU  13289.78808135  .00000184  00000-0  36356-3 0  7244
2 04864 099.5153 223.9061 0046635 155.8119 259.8012 13.48058544137755
0 THORAD AGENA D DEB
1 04864U 70025EU  13291.79175119  .00000210  00000-0  40503-3 0  7257
2 04864 099.5155 225.8135 0046722 150.8436 263.6183 13.48059412138022
0 THORAD AGENA D DEB
1 04864U 70025EU  13294.76200491  .00000229  00000-0  43483-3 0  7260
2 04864 099.5154 228.6414 0046874 143.4311 278.3288 13.48060949138420
